      2.10          N: GNSS NAV DATA                        RINEX VERSION / TYPE
fic2rin                                 06/10/2020 00:17:34 PGM / RUN BY / DATE
                                                            END OF HEADER
11 20  6  9  1 59 44.0-2.540308050811e-04 1.068656274583e-11 0.000000000000e+00
    4.000000000000e+01-4.268750000000e+01 5.866672941905e-09-1.499283351010e+00
   -1.823529601097e-06 1.601050968748e-02 1.192092895508e-06 5.153713731766e+03
    1.799840000000e+05-2.980232238770e-07 2.349319193614e+00 1.601874828339e-07
    9.128587207327e-01 3.355937500000e+02 1.989953873612e+00-9.027161731806e-09
    7.321733551020e-11 1.000000000000e+00 2.109000000000e+03 0.000000000000e+00
    2.400000000000e+00 0.000000000000e+00-1.257285475731e-08 4.000000000000e+01
    1.728000000000e+05 4.000000000000e+00
23 20  6  9  1 59 44.0-1.073619350791e-04 3.183231456205e-12 0.000000000000e+00
    4.300000000000e+01 1.725000000000e+01 5.282005731026e-09-1.091877406105e+00
    1.076608896255e-06 1.424245443195e-02 6.441026926041e-06 5.155117084503e+03
    1.799840000000e+05 2.104789018631e-07-1.396100558495e+00 3.166496753693e-07
    9.430754223968e-01 2.424687500000e+02-2.178490641942e+00-8.270344493045e-09
    2.860833450911e-10 1.000000000000e+00 2.109000000000e+03 0.000000000000e+00
    2.400000000000e+00 6.300000000000e+01-2.048909664154e-08 4.300000000000e+01
    1.728000000000e+05 4.000000000000e+00
 2 20  6  9  2  0  0.0-4.691700451076e-04-6.025402399246e-12 0.000000000000e+00
    7.700000000000e+01-9.184375000000e+01 4.837344351952e-09-7.366872513753e-01
   -4.680827260017e-06 1.970823865850e-02 3.693625330925e-06 5.153714313507e+03
    1.800000000000e+05-2.849847078323e-07 2.748117442648e+00 1.899898052216e-07
    9.595589820546e-01 3.157500000000e+02-1.625841189874e+00-8.708934190637e-09
   -2.857261873569e-12 1.000000000000e+00 2.109000000000e+03 0.000000000000e+00
    2.400000000000e+00 0.000000000000e+00-1.769512891769e-08 7.700000000000e+01
    1.728000000000e+05 4.000000000000e+00
 1 20  6  9  2  0  0.0 3.155320882797e-06 1.193711796077e-11 0.000000000000e+00
    7.000000000000e+00-1.023750000000e+02 4.221247260464e-09-9.757040429498e-01
   -5.096197128296e-06 9.944084798917e-03 4.194676876068e-06 5.153709241867e+03
    1.800000000000e+05 1.527369022369e-07 2.824646173508e+00 8.940696716309e-08
    9.806261961372e-01 3.064375000000e+02 7.863063765882e-01-8.061764376274e-09
   -7.786038605475e-11 1.000000000000e+00 2.109000000000e+03 0.000000000000e+00
    2.400000000000e+00 6.300000000000e+01 5.122274160385e-09 7.000000000000e+00
    1.728000000000e+05 4.000000000000e+00
 5 20  6  9  2  0  0.0-1.427810639143e-05-7.958078640513e-13 0.000000000000e+00
    1.000000000000e+01-9.190625000000e+01 4.567333104900e-09 1.950277790041e+00
   -4.677101969719e-06 5.904878722504e-03 1.048110425472e-05 5.153683660507e+03
    1.800000000000e+05-1.750886440277e-07-2.450677940870e+00-4.656612873077e-08
    9.528257523771e-01 1.760312500000e+02 8.002528149762e-01-7.884256982379e-09
    3.435857402966e-10 1.000000000000e+00 2.109000000000e+03 0.000000000000e+00
    2.400000000000e+00 0.000000000000e+00-1.117587089539e-08 1.000000000000e+01
    1.728000000000e+05 4.000000000000e+00
 3 20  6  9  2  0  0.0-2.028029412031e-04-1.227817847393e-11 0.000000000000e+00
    8.500000000000e+01-7.215625000000e+01 4.316608375494e-09-1.998549311692e+00
   -3.734603524208e-06 2.878683619201e-03 1.057051122189e-05 5.153545825958e+03
    1.800000000000e+05 4.284083843231e-08-2.418618598796e+00-3.352761268616e-08
    9.658985316994e-01 1.785000000000e+02 7.147565689143e-01-7.734250734016e-09
    3.800158291846e-10 1.000000000000e+00 2.109000000000e+03 0.000000000000e+00
    2.400000000000e+00 0.000000000000e+00 1.862645149231e-09 8.500000000000e+01
    1.728000000000e+05 4.000000000000e+00
17 20  6  9  2  0  0.0 2.778586931527e-04 6.025402399246e-12 0.000000000000e+00
    3.000000000000e+00 6.965625000000e+01 4.162673392055e-09 1.072884843926e+00
    3.501772880554e-06 1.321378967259e-02 2.011656761169e-06 5.153709835052e+03
    1.800000000000e+05-2.253800630569e-07 1.827290464611e+00-1.732259988785e-07
    9.836930810053e-01 3.504375000000e+02-1.641344496404e+00-8.356419506986e-09
    2.432244169875e-10 1.000000000000e+00 2.109000000000e+03 0.000000000000e+00
    2.400000000000e+00 0.000000000000e+00-1.071020960808e-08 3.000000000000e+00
    1.728000000000e+05 4.000000000000e+00
 9 20  6  9  2  0  0.0-2.328632399440e-04-6.934897101019e-12 0.000000000000e+00
    2.000000000000e+01 1.131250000000e+01 5.031281001620e-09 1.503099308451e+00
    4.228204488754e-07 1.514937495813e-03 6.668269634247e-06 5.153709131241e+03
    1.800000000000e+05-2.235174179077e-08-1.387448572779e+00 0.000000000000e+00
    9.522534602874e-01 2.438437500000e+02 1.807268732248e+00-8.113195089998e-09
    2.567964108870e-10 1.000000000000e+00 2.109000000000e+03 0.000000000000e+00
    2.400000000000e+00 0.000000000000e+00 1.396983861923e-09 2.000000000000e+01
    1.728000000000e+05 4.000000000000e+00
 7 20  6  9  2  0  0.0-3.001415170729e-04-8.753886504564e-12 0.000000000000e+00
    7.500000000000e+01-2.812500000000e-01 4.696267046944e-09-1.733299405826e+00
   -1.508742570877e-07 1.393771928269e-02 7.519498467445e-06 5.153655195236e+03
    1.800000000000e+05 1.881271600723e-07-3.133324228902e-01-1.676380634308e-07
    9.533328919473e-01 2.290312500000e+02-2.391501109563e+00-7.789967340551e-09
   -4.721625246072e-10 1.000000000000e+00 2.109000000000e+03 0.000000000000e+00
    2.400000000000e+00 0.000000000000e+00-1.117587089539e-08 7.500000000000e+01
    1.728000000000e+05 4.000000000000e+00
 6 20  6  9  2  0  0.0-2.856589853764e-04-6.139089236967e-12 0.000000000000e+00
    8.800000000000e+01-1.115625000000e+02 4.233390623426e-09-8.157478092049e-01
   -6.003305315971e-06 1.868380117230e-03 3.822147846222e-06 5.153556575775e+03
    1.800000000000e+05-4.842877388000e-08 2.816403428885e+00-2.235174179077e-08
    9.801783398593e-01 3.188125000000e+02-1.055673659537e+00-8.118552456011e-09
   -1.110760553350e-10 1.000000000000e+00 2.109000000000e+03 0.000000000000e+00
    2.400000000000e+00 0.000000000000e+00 4.190951585770e-09 8.800000000000e+01
    1.728000000000e+05 4.000000000000e+00
30 20  6  9  2  0  0.0-2.377247437835e-04-7.958078640513e-12 0.000000000000e+00
    1.600000000000e+01-3.125000000000e+00 5.067711090508e-09-1.775120763671e+00
   -2.775341272354e-07 4.667967674322e-03 7.722526788712e-06 5.153631444931e+03
    1.800000000000e+05-5.587935447693e-09-2.908496088137e-01-5.215406417847e-08
    9.386554948376e-01 2.184375000000e+02-2.855462817876e+00-8.106051935314e-09
   -5.200216609895e-10 1.000000000000e+00 2.109000000000e+03 0.000000000000e+00
    2.400000000000e+00 0.000000000000e+00 3.725290298462e-09 1.600000000000e+01
    1.728000000000e+05 4.000000000000e+00
22 20  6  9  2  0  0.0-7.788953371346e-04 1.818989403546e-12 0.000000000000e+00
    1.500000000000e+01-7.078125000000e+01 5.228074913162e-09 2.642771297118e-01
   -3.730878233910e-06 7.053118082695e-03 1.003034412861e-05 5.153816394806e+03
    1.800000000000e+05-3.725290298462e-08-2.505496892825e+00-8.754432201385e-08
    9.309836452171e-01 1.741250000000e+02-1.140182207680e+00-8.314274894351e-09
    2.946551307118e-10 1.000000000000e+00 2.109000000000e+03 0.000000000000e+00
    2.400000000000e+00 0.000000000000e+00-1.816079020500e-08 1.500000000000e+01
    1.728000000000e+05 4.000000000000e+00
14 20  6  9  2  0  0.0-7.218681275845e-06 2.728484105319e-12 0.000000000000e+00
    2.200000000000e+01 1.109375000000e+01 4.953063457831e-09 9.351678878962e-01
    6.146728992462e-07 1.149343210272e-02 6.886199116707e-06 5.153646665573e+03
    1.800000000000e+05-1.974403858185e-07-1.291404321636e+00 6.519258022308e-08
    9.599985626049e-01 2.515312500000e+02-1.914115306540e+00-8.293916903501e-09
    1.128618440060e-10 1.000000000000e+00 2.109000000000e+03 0.000000000000e+00
    2.400000000000e+00 0.000000000000e+00-9.778887033463e-09 2.200000000000e+01
    1.728000000000e+05 4.000000000000e+00
31 20  6  9  2  0  0.0-4.788720980287e-05-2.501110429876e-12 0.000000000000e+00
    8.400000000000e+01-3.781250000000e+00 4.698052835615e-09-2.083353424878e+00
   -2.291053533554e-07 9.529218194075e-03 7.808208465576e-06 5.153585344315e+03
    1.800000000000e+05-1.490116119385e-08-2.977324160131e-01-1.639127731323e-07
    9.577681874608e-01 2.282812500000e+02 1.337434993650e-01-7.975332204599e-09
   -4.625192657839e-10 1.000000000000e+00 2.109000000000e+03 0.000000000000e+00
    2.400000000000e+00 0.000000000000e+00-1.303851604462e-08 8.400000000000e+01
    1.728000000000e+05 4.000000000000e+00
26 20  6  9  2  0  0.0 2.219071611762e-04 7.048583938740e-12 0.000000000000e+00
    4.400000000000e+01 8.859375000000e+01 4.421612749348e-09 3.008108209221e+00
    4.593282938004e-06 4.745863261633e-03 9.428709745407e-06 5.153635330200e+03
    1.800000000000e+05 3.725290298462e-09 6.879281874046e-01 1.676380634308e-08
    9.467733077200e-01 1.916250000000e+02 2.245025010532e-01-7.908186550570e-09
   -1.628639267934e-10 1.000000000000e+00 2.109000000000e+03 0.000000000000e+00
    2.400000000000e+00 0.000000000000e+00 6.984919309616e-09 4.400000000000e+01
    1.728000000000e+05 4.000000000000e+00
29 20  6  9  2  0  0.0-1.235627569258e-04-8.753886504564e-12 0.000000000000e+00
    1.140000000000e+02 5.909375000000e+01 4.011952828225e-09 1.519307204603e+00
    3.108754754066e-06 1.537631149404e-03 2.438202500343e-06 5.153573629379e+03
    1.800000000000e+05 3.725290298462e-09 1.839075862857e+00-5.587935447693e-09
    9.853639748333e-01 3.446250000000e+02 1.950309212058e+00-8.064978795882e-09
    2.553677799502e-10 1.000000000000e+00 2.109000000000e+03 0.000000000000e+00
    2.400000000000e+00 0.000000000000e+00-9.778887033463e-09 1.140000000000e+02
    1.728000000000e+05 4.000000000000e+00
